start=new Date('2022-06-25T00:00:00.000Z').valueOf();
sats=[{"CENTER_NAME":"EARTH","REF_FRAME":"TEME","GP_ID":"206791161","MEAN_MOTION_DDOT":"0.0000000000000","SEMIMAJOR_AXIS":"6813.401","TLE_LINE2":"2 52297  53.2174  59.2353 0001484  58.4386 191.9035 15.43678427  1306","CLASSIFICATION_TYPE":"U","BSTAR":"-0.01691100000000","ELEMENT_SET_NO":"999","OBJECT_ID":"2022-041AN","APOAPSIS":"436.277","COUNTRY_CODE":"US","MEAN_ANOMALY":"191.9035","NORAD_CAT_ID":"52297","MEAN_MOTION":"15.43678427","ECCENTRICITY":"0.00014840","OBJECT_TYPE":"PAYLOAD","EPHEMERIS_TYPE":"0","DECAY_DATE":null,"OBJECT_NAME":"STARLINK-3758","SITE":"AFETR","MEAN_MOTION_DOT":"-0.00716590","LAUNCH_DATE":"2022-04-21","TIME_SYSTEM":"UTC","PERIOD":"93.284","MEAN_ELEMENT_THEORY":"SGP4","RA_OF_ASC_NODE":"59.2353","TLE_LINE1":"1 52297U 22041AN  22175.91668981 -.00716590  00000-0 -16911-1 0  9998","REV_AT_EPOCH":"130","INCLINATION":"53.2174","FILE":"3501798","PERIAPSIS":"434.255","ARG_OF_PERICENTER":"58.4386","EPOCH":"2022-06-24T22:00:01.999584","RCS_SIZE":"LARGE"},{"CLASSIFICATION_TYPE":"U","APOAPSIS":"432.686","COUNTRY_CODE":"US","BSTAR":"-0.01625500000000","ELEMENT_SET_NO":"999","OBJECT_ID":"2022-041AP","MEAN_ANOMALY":"203.2480","NORAD_CAT_ID":"52298","CENTER_NAME":"EARTH","REF_FRAME":"TEME","SEMIMAJOR_AXIS":"6809.902","TLE_LINE2":"2 52298  53.2175  59.2998 0001349  67.8727 203.2480 15.44868215  1304","GP_ID":"206790526","MEAN_MOTION_DDOT":"0.0000000000000","LAUNCH_DATE":"2022-04-21","TIME_SYSTEM":"UTC","MEAN_MOTION_DOT":"-0.00717295","REV_AT_EPOCH":"130","INCLINATION":"53.2175","PERIOD":"93.212","MEAN_ELEMENT_THEORY":"SGP4","RA_OF_ASC_NODE":"59.2998","TLE_LINE1":"1 52298U 22041AP  22175.91668981 -.00717295  00000-0 -16255-1 0  9993","PERIAPSIS":"430.849","ARG_OF_PERICENTER":"67.8727","FILE":"3501798","RCS_SIZE":"LARGE","EPOCH":"2022-06-24T22:00:01.999584","ECCENTRICITY":"0.00013490","MEAN_MOTION":"15.44868215","OBJECT_TYPE":"PAYLOAD","OBJECT_NAME":"STARLINK-3760","EPHEMERIS_TYPE":"0","DECAY_DATE":null,"SITE":"AFETR"},{"APOAPSIS":"433.874","COUNTRY_CODE":"US","BSTAR":"-0.01646900000000","ELEMENT_SET_NO":"999","OBJECT_ID":"2022-041AQ","CLASSIFICATION_TYPE":"U","NORAD_CAT_ID":"52299","MEAN_ANOMALY":"198.2608","CENTER_NAME":"EARTH","SEMIMAJOR_AXIS":"6811.068","TLE_LINE2":"2 52299  53.2174  59.2787 0001381  66.3035 198.2608 15.44471556  1305","GP_ID":"206790632","MEAN_MOTION_DDOT":"0.0000000000000","REF_FRAME":"TEME","REV_AT_EPOCH":"130","INCLINATION":"53.2174","MEAN_ELEMENT_THEORY":"SGP4","PERIOD":"93.236","RA_OF_ASC_NODE":"59.2787","TLE_LINE1":"1 52299U 22041AQ  22175.91668981 -.00716960  00000-0 -16469-1 0  9999","TIME_SYSTEM":"UTC","LAUNCH_DATE":"2022-04-21","MEAN_MOTION_DOT":"-0.00716960","RCS_SIZE":"LARGE","EPOCH":"2022-06-24T22:00:01.999584","PERIAPSIS":"431.993","ARG_OF_PERICENTER":"66.3035","FILE":"3501798","OBJECT_TYPE":"PAYLOAD","ECCENTRICITY":"0.00013810","MEAN_MOTION":"15.44471556","SITE":"AFETR","OBJECT_NAME":"STARLINK-3759","EPHEMERIS_TYPE":"0","DECAY_DATE":null},{"EPOCH":"2022-06-24T22:00:01.999584","RCS_SIZE":"LARGE","FILE":"3501798","PERIAPSIS":"429.736","ARG_OF_PERICENTER":"91.5865","MEAN_ELEMENT_THEORY":"SGP4","PERIOD":"93.188","RA_OF_ASC_NODE":"59.3209","TLE_LINE1":"1 52300U 22041AR  22175.91668981 -.00717408  00000-0 -16038-1 0  9992","REV_AT_EPOCH":"130","INCLINATION":"53.2175","MEAN_MOTION_DOT":"-0.00717408","TIME_SYSTEM":"UTC","LAUNCH_DATE":"2022-04-21","SITE":"AFETR","EPHEMERIS_TYPE":"0","DECAY_DATE":null,"OBJECT_NAME":"STARLINK-3769","OBJECT_TYPE":"PAYLOAD","MEAN_MOTION":"15.45264754","ECCENTRICITY":"0.00012730","NORAD_CAT_ID":"52300","MEAN_ANOMALY":"185.7208","BSTAR":"-0.01603800000000","ELEMENT_SET_NO":"999","OBJECT_ID":"2022-041AR","APOAPSIS":"431.469","COUNTRY_CODE":"US","CLASSIFICATION_TYPE":"U","GP_ID":"206790768","MEAN_MOTION_DDOT":"0.0000000000000","SEMIMAJOR_AXIS":"6808.737","TLE_LINE2":"2 52300  53.2175  59.3209 0001273  91.5865 185.7208 15.45264754  1308","REF_FRAME":"TEME","CENTER_NAME":"EARTH"},{"EPOCH":"2022-06-24T22:00:01.999584","RCS_SIZE":"LARGE","FILE":"3501798","ARG_OF_PERICENTER":"63.1971","PERIAPSIS":"432.552","TLE_LINE1":"1 52301U 22041AS  22175.91668981 -.00716883  00000-0 -16579-1 0  9999","PERIOD":"93.248","RA_OF_ASC_NODE":"59.2679","MEAN_ELEMENT_THEORY":"SGP4","INCLINATION":"53.2174","REV_AT_EPOCH":"130","MEAN_MOTION_DOT":"-0.00716883","LAUNCH_DATE":"2022-04-21","TIME_SYSTEM":"UTC","SITE":"AFETR","DECAY_DATE":null,"EPHEMERIS_TYPE":"0","OBJECT_NAME":"STARLINK-3768","OBJECT_TYPE":"PAYLOAD","MEAN_MOTION":"15.44273274","ECCENTRICITY":"0.00014150","NORAD_CAT_ID":"52301","MEAN_ANOMALY":"197.9503","OBJECT_ID":"2022-041AS","BSTAR":"-0.01657900000000","ELEMENT_SET_NO":"999","COUNTRY_CODE":"US","APOAPSIS":"434.480","CLASSIFICATION_TYPE":"U","MEAN_MOTION_DDOT":"0.0000000000000","GP_ID":"206791086","TLE_LINE2":"2 52301  53.2174  59.2679 0001415  63.1971 197.9503 15.44273274  1308","SEMIMAJOR_AXIS":"6811.651","REF_FRAME":"TEME","CENTER_NAME":"EARTH"},{"REF_FRAME":"TEME","GP_ID":"206790874","MEAN_MOTION_DDOT":"0.0000000000000","SEMIMAJOR_AXIS":"6727.706","TLE_LINE2":"2 52302  53.2149  56.9184 0003821   3.5315 324.0539 15.73266482  1306","CENTER_NAME":"EARTH","MEAN_ANOMALY":"324.0539","NORAD_CAT_ID":"52302","CLASSIFICATION_TYPE":"U","ELEMENT_SET_NO":"999","BSTAR":"-0.00064059000000","OBJECT_ID":"2022-041AT","APOAPSIS":"352.141","COUNTRY_CODE":"US","EPHEMERIS_TYPE":"0","DECAY_DATE":null,"OBJECT_NAME":"STARLINK-3564","SITE":"AFETR","MEAN_MOTION":"15.73266482","ECCENTRICITY":"0.00038210","OBJECT_TYPE":"PAYLOAD","FILE":"3501798","PERIAPSIS":"347.000","ARG_OF_PERICENTER":"3.5315","EPOCH":"2022-06-24T22:00:01.999584","RCS_SIZE":"LARGE","MEAN_MOTION_DOT":"-0.00089870","LAUNCH_DATE":"2022-04-21","TIME_SYSTEM":"UTC","MEAN_ELEMENT_THEORY":"SGP4","PERIOD":"91.529","RA_OF_ASC_NODE":"56.9184","TLE_LINE1":"1 52302U 22041AT  22175.91668981 -.00089870  00000-0 -64059-3 0  9997","REV_AT_EPOCH":"130","INCLINATION":"53.2149"},{"MEAN_MOTION_DOT":"-0.00717223","LAUNCH_DATE":"2022-04-21","TIME_SYSTEM":"UTC","PERIOD":"93.200","MEAN_ELEMENT_THEORY":"SGP4","RA_OF_ASC_NODE":"59.3106","TLE_LINE1":"1 52303U 22041AU  22175.91668981 -.00717223  00000-0 -16143-1 0  9997","REV_AT_EPOCH":"130","INCLINATION":"53.2175","FILE":"3501798","PERIAPSIS":"430.271","ARG_OF_PERICENTER":"68.2994","EPOCH":"2022-06-24T22:00:01.999584","RCS_SIZE":"LARGE","MEAN_MOTION":"15.45066426","ECCENTRICITY":"0.00013420","OBJECT_TYPE":"PAYLOAD","EPHEMERIS_TYPE":"0","DECAY_DATE":null,"OBJECT_NAME":"STARLINK-3742","SITE":"AFETR","CLASSIFICATION_TYPE":"U","ELEMENT_SET_NO":"999","BSTAR":"-0.01614300000000","OBJECT_ID":"2022-041AU","APOAPSIS":"432.099","COUNTRY_CODE":"US","MEAN_ANOMALY":"205.9608","NORAD_CAT_ID":"52303","CENTER_NAME":"EARTH","REF_FRAME":"TEME","GP_ID":"206790980","MEAN_MOTION_DDOT":"0.0000000000000","SEMIMAJOR_AXIS":"6809.320","TLE_LINE2":"2 52303  53.2175  59.3106 0001342  68.2994 205.9608 15.45066426  1303"},{"REF_FRAME":"TEME","MEAN_MOTION_DDOT":"0.0000000000000","GP_ID":"206790421","TLE_LINE2":"2 52304  53.2158  56.9173 0003749   5.1862 322.8576 15.73196417  1307","SEMIMAJOR_AXIS":"6727.905","CENTER_NAME":"EARTH","MEAN_ANOMALY":"322.8576","NORAD_CAT_ID":"52304","CLASSIFICATION_TYPE":"U","OBJECT_ID":"2022-041AV","ELEMENT_SET_NO":"999","BSTAR":"0.00013209000000","COUNTRY_CODE":"US","APOAPSIS":"352.293","DECAY_DATE":null,"EPHEMERIS_TYPE":"0","OBJECT_NAME":"STARLINK-3744","SITE":"AFETR","MEAN_MOTION":"15.73196417","ECCENTRICITY":"0.00037490","OBJECT_TYPE":"PAYLOAD","FILE":"3501798","ARG_OF_PERICENTER":"5.1862","PERIAPSIS":"347.248","EPOCH":"2022-06-24T22:00:01.999584","RCS_SIZE":"LARGE","MEAN_MOTION_DOT":"0.00017957","TIME_SYSTEM":"UTC","LAUNCH_DATE":"2022-04-21","TLE_LINE1":"1 52304U 22041AV  22175.91668981  .00017957  00000-0  13209-3 0  9995","RA_OF_ASC_NODE":"56.9173","PERIOD":"91.533","MEAN_ELEMENT_THEORY":"SGP4","INCLINATION":"53.2158","REV_AT_EPOCH":"130"},{"RCS_SIZE":"LARGE","EPOCH":"2022-06-24T22:00:01.999584","PERIAPSIS":"429.314","ARG_OF_PERICENTER":"84.0075","FILE":"3501798","REV_AT_EPOCH":"130","INCLINATION":"53.2175","PERIOD":"93.179","RA_OF_ASC_NODE":"59.3284","MEAN_ELEMENT_THEORY":"SGP4","TLE_LINE1":"1 52305U 22041AW  22175.91668981 -.00717472  00000-0 -15960-1 0  9991","TIME_SYSTEM":"UTC","LAUNCH_DATE":"2022-04-21","MEAN_MOTION_DOT":"-0.00717472","SITE":"AFETR","OBJECT_NAME":"STARLINK-3724","EPHEMERIS_TYPE":"0","DECAY_DATE":null,"OBJECT_TYPE":"PAYLOAD","ECCENTRICITY":"0.00012690","MEAN_MOTION":"15.45409190","NORAD_CAT_ID":"52305","MEAN_ANOMALY":"195.6904","APOAPSIS":"431.042","COUNTRY_CODE":"US","ELEMENT_SET_NO":"999","BSTAR":"-0.01596000000000","OBJECT_ID":"2022-041AW","CLASSIFICATION_TYPE":"U","SEMIMAJOR_AXIS":"6808.313","TLE_LINE2":"2 52305  53.2175  59.3284 0001269  84.0075 195.6904 15.45409190  1309","GP_ID":"206791162","MEAN_MOTION_DDOT":"0.0000000000000","REF_FRAME":"TEME","CENTER_NAME":"EARTH"},{"INCLINATION":"53.2156","REV_AT_EPOCH":"130","TLE_LINE1":"1 52306U 22041AX  22175.91668981  .00012587  00000-0  94102-4 0  9993","PERIOD":"91.535","RA_OF_ASC_NODE":"56.9158","MEAN_ELEMENT_THEORY":"SGP4","TIME_SYSTEM":"UTC","LAUNCH_DATE":"2022-04-21","MEAN_MOTION_DOT":"0.00012587","RCS_SIZE":"LARGE","EPOCH":"2022-06-24T22:00:01.999584","ARG_OF_PERICENTER":"7.0753","PERIAPSIS":"347.277","FILE":"3501798","OBJECT_TYPE":"PAYLOAD","ECCENTRICITY":"0.00038400","MEAN_MOTION":"15.73164906","SITE":"AFETR","OBJECT_NAME":"STARLINK-3747","DECAY_DATE":null,"EPHEMERIS_TYPE":"0","COUNTRY_CODE":"US","APOAPSIS":"352.444","OBJECT_ID":"2022-041AX","BSTAR":"0.00009410200000","ELEMENT_SET_NO":"999","CLASSIFICATION_TYPE":"U","NORAD_CAT_ID":"52306","MEAN_ANOMALY":"321.6384","CENTER_NAME":"EARTH","TLE_LINE2":"2 52306  53.2156  56.9158 0003840   7.0753 321.6384 15.73164906  1304","SEMIMAJOR_AXIS":"6727.995","MEAN_MOTION_DDOT":"0.0000000000000","GP_ID":"206790527","REF_FRAME":"TEME"}];
